STARLINK-5683           
1 55452U 23015D   25250.03487167  .00000636  00000+0  62114-4 0  9994
2 55452  43.0034 244.2590 0001152 279.7703  80.3009 15.02536444143122
STARLINK-5684           
1 55453U 23015E   25250.03153919 -.00000075  00000+0  94999-5 0  9995
2 55453  43.0033 244.2329 0001289 267.5825  92.4870 15.02537414143121
STARLINK-5636           
1 55454U 23015F   25250.29077060  .00002297  00000+0  18500-3 0  9995
2 55454  43.0035 242.7295 0001248 270.2288  89.8412 15.02552344143163
STARLINK-5680           
1 55455U 23015G   25249.70580796  .00000564  00000+0  56816-4 0  9993
2 55455  43.0031 246.0896 0001317 263.1974  96.8718 15.02537139143076
STARLINK-5058           
1 55456U 23015H   25250.29188212  .00001732  00000+0  14321-3 0  9999
2 55456  43.0029 242.7455 0001494 271.4663  88.6008 15.02553332143165
STARLINK-5682           
1 55457U 23015J   25250.29412280  .00000511  00000+0  52863-4 0  9993
2 55457  43.0030 242.7633 0001228 271.2202  88.8499 15.02534036143164
STARLINK-5020           
1 55458U 23015K   25250.01490700  .00001474  00000+0  12420-3 0  9990
2 55458  43.0032 244.1062 0001230 275.4718  84.5984 15.02526417143122
STARLINK-5669           
1 55459U 23015L   25250.28524313  .00000005  00000+0  15474-4 0  9990
2 55459  43.0030 242.6959 0001283 268.1186  91.9509 15.02534139143164
STARLINK-5678           
1 55460U 23015M   25250.28191337 -.00000309  00000+0 -78039-5 0  9994
2 55460  43.0035 242.6707 0001268 269.1792  90.8905 15.02534403143161
STARLINK-5646           
1 55461U 23015N   25250.28858810  .00001567  00000+0  13108-3 0  9990
2 55461  43.0024 242.7209 0001264 270.7238  89.3460 15.02528555143167
STARLINK-5673           
1 55462U 23015P   25250.27081227  .00000747  00000+0  70362-4 0  9995
2 55462  43.0027 242.5865 0001191 273.1394  86.9312 15.02538286143167
STARLINK-5677           
1 55463U 23015Q   25250.27636183  .00000465  00000+0  49463-4 0  9998
2 55463  43.0031 242.6266 0001240 270.8874  89.1826 15.02538159143165
STARLINK-5676           
1 55464U 23015R   25250.26415388 -.00000213  00000+0 -67066-6 0  9994
2 55464  43.0028 242.5360 0001223 268.7861  91.2842 15.02533902143162
STARLINK-5674           
1 55465U 23015S   25250.00156534  .00000951  00000+0  85470-4 0  9996
2 55465  43.0028 244.0070 0001274 276.7444  83.3254 15.02542041143129
STARLINK-5628           
1 55466U 23015T   25250.25083437  .00000481  00000+0  50653-4 0  9998
2 55466  43.0021 242.4357 0001126 274.0094  86.0619 15.02534991143165
STARLINK-5679           
1 55467U 23015U   25250.00822849  .00000169  00000+0  27545-4 0  9997
2 55467  43.0029 244.0563 0001161 265.7095  94.3615 15.02536780143120
