[{"OBJECT_NAME":"STARLINK-5683","OBJECT_ID":"2023-015D","EPOCH":"2025-09-07T00:50:12.912288","MEAN_MOTION":15.02536444,"ECCENTRICITY":0.0001152,"INCLINATION":43.0034,"RA_OF_ASC_NODE":244.259,"ARG_OF_PERICENTER":279.7703,"MEAN_ANOMALY":80.3009,"EPHEMERIS_TYPE":0,"CLASSIFICATION_TYPE":"U","NORAD_CAT_ID":55452,"ELEMENT_SET_NO":999,"REV_AT_EPOCH":14312,"BSTAR":6.2113691e-5,"MEAN_MOTION_DOT":6.36e-6,"MEAN_MOTION_DDOT":0},{"OBJECT_NAME":"STARLINK-5684","OBJECT_ID":"2023-015E","EPOCH":"2025-09-07T00:45:24.986016","MEAN_MOTION":15.02537414,"ECCENTRICITY":0.00012895,"INCLINATION":43.0033,"RA_OF_ASC_NODE":244.2329,"ARG_OF_PERICENTER":267.5825,"MEAN_ANOMALY":92.487,"EPHEMERIS_TYPE":0,"CLASSIFICATION_TYPE":"U","NORAD_CAT_ID":55453,"ELEMENT_SET_NO":999,"REV_AT_EPOCH":14312,"BSTAR":9.499892e-6,"MEAN_MOTION_DOT":-7.5e-7,"MEAN_MOTION_DDOT":0},{"OBJECT_NAME":"STARLINK-5636","OBJECT_ID":"2023-015F","EPOCH":"2025-09-07T06:58:42.579840","MEAN_MOTION":15.02552344,"ECCENTRICITY":0.00012485,"INCLINATION":43.0035,"RA_OF_ASC_NODE":242.7295,"ARG_OF_PERICENTER":270.2288,"MEAN_ANOMALY":89.8412,"EPHEMERIS_TYPE":0,"CLASSIFICATION_TYPE":"U","NORAD_CAT_ID":55454,"ELEMENT_SET_NO":999,"REV_AT_EPOCH":14316,"BSTAR":0.00018500467,"MEAN_MOTION_DOT":2.297e-5,"MEAN_MOTION_DDOT":0},{"OBJECT_NAME":"STARLINK-5680","OBJECT_ID":"2023-015G","EPOCH":"2025-09-06T16:56:21.807744","MEAN_MOTION":15.02537139,"ECCENTRICITY":0.00013173,"INCLINATION":43.0031,"RA_OF_ASC_NODE":246.0896,"ARG_OF_PERICENTER":263.1974,"MEAN_ANOMALY":96.8718,"EPHEMERIS_TYPE":0,"CLASSIFICATION_TYPE":"U","NORAD_CAT_ID":55455,"ELEMENT_SET_NO":999,"REV_AT_EPOCH":14307,"BSTAR":5.6816374e-5,"MEAN_MOTION_DOT":5.64e-6,"MEAN_MOTION_DDOT":0},{"OBJECT_NAME":"STARLINK-5058","OBJECT_ID":"2023-015H","EPOCH":"2025-09-07T07:00:18.615168","MEAN_MOTION":15.02553332,"ECCENTRICITY":0.00014941,"INCLINATION":43.0029,"RA_OF_ASC_NODE":242.7455,"ARG_OF_PERICENTER":271.4663,"MEAN_ANOMALY":88.6008,"EPHEMERIS_TYPE":0,"CLASSIFICATION_TYPE":"U","NORAD_CAT_ID":55456,"ELEMENT_SET_NO":999,"REV_AT_EPOCH":14316,"BSTAR":0.00014321248,"MEAN_MOTION_DOT":1.732e-5,"MEAN_MOTION_DDOT":0},{"OBJECT_NAME":"STARLINK-5682","OBJECT_ID":"2023-015J","EPOCH":"2025-09-07T07:03:32.209920","MEAN_MOTION":15.02534036,"ECCENTRICITY":0.00012286,"INCLINATION":43.003,"RA_OF_ASC_NODE":242.7633,"ARG_OF_PERICENTER":271.2202,"MEAN_ANOMALY":88.8499,"EPHEMERIS_TYPE":0,"CLASSIFICATION_TYPE":"U","NORAD_CAT_ID":55457,"ELEMENT_SET_NO":999,"REV_AT_EPOCH":14316,"BSTAR":5.2863271e-5,"MEAN_MOTION_DOT":5.11e-6,"MEAN_MOTION_DDOT":0},{"OBJECT_NAME":"STARLINK-5020","OBJECT_ID":"2023-015K","EPOCH":"2025-09-07T00:21:27.964800","MEAN_MOTION":15.02526417,"ECCENTRICITY":0.00012302,"INCLINATION":43.0032,"RA_OF_ASC_NODE":244.1062,"ARG_OF_PERICENTER":275.4718,"MEAN_ANOMALY":84.5984,"EPHEMERIS_TYPE":0,"CLASSIFICATION_TYPE":"U","NORAD_CAT_ID":55458,"ELEMENT_SET_NO":999,"REV_AT_EPOCH":14312,"BSTAR":0.00012419647,"MEAN_MOTION_DOT":1.474e-5,"MEAN_MOTION_DDOT":0},{"OBJECT_NAME":"STARLINK-5669","OBJECT_ID":"2023-015L","EPOCH":"2025-09-07T06:50:45.006432","MEAN_MOTION":15.02534139,"ECCENTRICITY":0.00012833,"INCLINATION":43.003,"RA_OF_ASC_NODE":242.6959,"ARG_OF_PERICENTER":268.1186,"MEAN_ANOMALY":91.9509,"EPHEMERIS_TYPE":0,"CLASSIFICATION_TYPE":"U","NORAD_CAT_ID":55459,"ELEMENT_SET_NO":999,"REV_AT_EPOCH":14316,"BSTAR":1.547383e-5,"MEAN_MOTION_DOT":5.0e-8,"MEAN_MOTION_DDOT":0},{"OBJECT_NAME":"STARLINK-5678","OBJECT_ID":"2023-015M","EPOCH":"2025-09-07T06:45:57.315168","MEAN_MOTION":15.02534403,"ECCENTRICITY":0.00012684,"INCLINATION":43.0035,"RA_OF_ASC_NODE":242.6707,"ARG_OF_PERICENTER":269.1792,"MEAN_ANOMALY":90.8905,"EPHEMERIS_TYPE":0,"CLASSIFICATION_TYPE":"U","NORAD_CAT_ID":55460,"ELEMENT_SET_NO":999,"REV_AT_EPOCH":14316,"BSTAR":-7.803898e-6,"MEAN_MOTION_DOT":-3.09e-6,"MEAN_MOTION_DDOT":0},{"OBJECT_NAME":"STARLINK-5646","OBJECT_ID":"2023-015N","EPOCH":"2025-09-07T06:55:34.011840","MEAN_MOTION":15.02528555,"ECCENTRICITY":0.00012646,"INCLINATION":43.0024,"RA_OF_ASC_NODE":242.7209,"ARG_OF_PERICENTER":270.7238,"MEAN_ANOMALY":89.346,"EPHEMERIS_TYPE":0,"CLASSIFICATION_TYPE":"U","NORAD_CAT_ID":55461,"ELEMENT_SET_NO":999,"REV_AT_EPOCH":14316,"BSTAR":0.0001310792,"MEAN_MOTION_DOT":1.567e-5,"MEAN_MOTION_DDOT":0},{"OBJECT_NAME":"STARLINK-5673","OBJECT_ID":"2023-015P","EPOCH":"2025-09-07T06:29:58.180128","MEAN_MOTION":15.02538286,"ECCENTRICITY":0.00011914,"INCLINATION":43.0027,"RA_OF_ASC_NODE":242.5865,"ARG_OF_PERICENTER":273.1394,"MEAN_ANOMALY":86.9312,"EPHEMERIS_TYPE":0,"CLASSIFICATION_TYPE":"U","NORAD_CAT_ID":55462,"ELEMENT_SET_NO":999,"REV_AT_EPOCH":14316,"BSTAR":7.0361603e-5,"MEAN_MOTION_DOT":7.47e-6,"MEAN_MOTION_DDOT":0},{"OBJECT_NAME":"STARLINK-5677","OBJECT_ID":"2023-015Q","EPOCH":"2025-09-07T06:37:57.662112","MEAN_MOTION":15.02538159,"ECCENTRICITY":0.00012405,"INCLINATION":43.0031,"RA_OF_ASC_NODE":242.6266,"ARG_OF_PERICENTER":270.8874,"MEAN_ANOMALY":89.1826,"EPHEMERIS_TYPE":0,"CLASSIFICATION_TYPE":"U","NORAD_CAT_ID":55463,"ELEMENT_SET_NO":999,"REV_AT_EPOCH":14316,"BSTAR":4.9462825e-5,"MEAN_MOTION_DOT":4.65e-6,"MEAN_MOTION_DDOT":0},{"OBJECT_NAME":"STARLINK-5676","OBJECT_ID":"2023-015R","EPOCH":"2025-09-07T06:20:22.895232","MEAN_MOTION":15.02533902,"ECCENTRICITY":0.00012232,"INCLINATION":43.0028,"RA_OF_ASC_NODE":242.536,"ARG_OF_PERICENTER":268.7861,"MEAN_ANOMALY":91.2842,"EPHEMERIS_TYPE":0,"CLASSIFICATION_TYPE":"U","NORAD_CAT_ID":55464,"ELEMENT_SET_NO":999,"REV_AT_EPOCH":14316,"BSTAR":-6.70655e-7,"MEAN_MOTION_DOT":-2.13e-6,"MEAN_MOTION_DDOT":0},{"OBJECT_NAME":"STARLINK-5674","OBJECT_ID":"2023-015S","EPOCH":"2025-09-07T00:02:15.245376","MEAN_MOTION":15.02542041,"ECCENTRICITY":0.00012741,"INCLINATION":43.0028,"RA_OF_ASC_NODE":244.007,"ARG_OF_PERICENTER":276.7444,"MEAN_ANOMALY":83.3254,"EPHEMERIS_TYPE":0,"CLASSIFICATION_TYPE":"U","NORAD_CAT_ID":55465,"ELEMENT_SET_NO":999,"REV_AT_EPOCH":14312,"BSTAR":8.5470373e-5,"MEAN_MOTION_DOT":9.51e-6,"MEAN_MOTION_DDOT":0},{"OBJECT_NAME":"STARLINK-5628","OBJECT_ID":"2023-015T","EPOCH":"2025-09-07T06:01:12.089568","MEAN_MOTION":15.02534991,"ECCENTRICITY":0.00011268,"INCLINATION":43.0021,"RA_OF_ASC_NODE":242.4357,"ARG_OF_PERICENTER":274.0094,"MEAN_ANOMALY":86.0619,"EPHEMERIS_TYPE":0,"CLASSIFICATION_TYPE":"U","NORAD_CAT_ID":55466,"ELEMENT_SET_NO":999,"REV_AT_EPOCH":14316,"BSTAR":5.0652874e-5,"MEAN_MOTION_DOT":4.81e-6,"MEAN_MOTION_DDOT":0},{"OBJECT_NAME":"STARLINK-5679","OBJECT_ID":"2023-015U","EPOCH":"2025-09-07T00:11:50.941536","MEAN_MOTION":15.0253678,"ECCENTRICITY":0.00011614,"INCLINATION":43.0029,"RA_OF_ASC_NODE":244.0563,"ARG_OF_PERICENTER":265.7095,"MEAN_ANOMALY":94.3615,"EPHEMERIS_TYPE":0,"CLASSIFICATION_TYPE":"U","NORAD_CAT_ID":55467,"ELEMENT_SET_NO":999,"REV_AT_EPOCH":14312,"BSTAR":2.7544812e-5,"MEAN_MOTION_DOT":1.69e-6,"MEAN_MOTION_DDOT":0}]
